STARLINK-4667           
1 53707U 22107H   25272.19287683  .00004391  00000+0  29384-3 0  9991
2 53707  53.2156 234.1208 0001441 104.9847 255.1305 15.08838315170684
STARLINK-4694           
1 53708U 22107J   25272.11189354  .00003295  00000+0  22493-3 0  9996
2 53708  53.2156 234.3388 0001306  89.3317 270.7825 15.08851570170671
STARLINK-4685           
1 53709U 22107K   25272.23147287  .00000431  00000+0  45178-4 0  9994
2 53709  53.2161 253.6254 0001410  78.9150 281.2001 15.08839801170103
STARLINK-4627           
1 53711U 22107M   25272.11004924  .00000454  00000+0  46639-4 0  9992
2 53711  53.2169 254.2810 0001473 101.5886 258.5272 15.08835585170086
STARLINK-4683           
1 53712U 22107N   25272.21673657  .00001105  00000+0  87507-4 0  9992
2 53712  53.2161 253.5464 0001335  85.3771 274.7374 15.08840348170126
STARLINK-4686           
1 53715U 22107R   25272.10405880  .00003784  00000+0  25566-3 0  9995
2 53715  53.2155 259.2232 0001594  89.2896 270.8278 15.08847567170025
STARLINK-4699           
1 53716U 22107S   25272.23285262  .00000897  00000+0  74437-4 0  9994
2 53716  53.2168 258.6032 0001755  65.4269 294.6906 15.08841502170036
STARLINK-4695           
1 53718U 22107U   25272.22284365  .00001031  00000+0  82867-4 0  9995
2 53718  53.2164 259.2375 0001381  88.6921 271.4229 15.08841315170020
STARLINK-4644           
1 53719U 22107V   25271.89336500  .00001290  00000+0  99147-4 0  9993
2 53719  53.2169 230.0755 0001464  93.2284 266.8876 15.08841450170410
STARLINK-4642           
1 53720U 22107W   25272.24024015  .00008941  00000+0  57895-3 0  9993
2 53720  53.2151 258.6520 0001525  84.0233 276.0933 15.08852305170046
STARLINK-4707           
1 53721U 22107X   25272.24759311  .00000178  00000+0  29295-4 0  9996
2 53721  53.2172 258.7015 0001483  81.0055 279.1105 15.08853262170040
STARLINK-4700           
1 53722U 22107Y   25272.18872062  .00000097  00000+0  24159-4 0  9993
2 53722  53.2167 259.0354 0001381  96.9177 263.1972 15.08836613170026
STARLINK-4705           
1 53723U 22107Z   25272.22916770  .00000784  00000+0  67335-4 0  9990
2 53723  53.2169 258.5909 0001575  76.3008 283.8160 15.08842698170184
STARLINK-4663           
1 53724U 22107AA  25272.24390185  .00000488  00000+0  48739-4 0  9997
2 53724  53.2170 258.6744 0001540 100.1391 259.9775 15.08842536170040
STARLINK-4697           
1 53726U 22107AC  25272.18504889  .00012719  00000+0  81522-3 0  9996
2 53726  53.2155 259.0165 0001372  99.3995 260.7152 15.08865609170033
STARLINK-4701           
1 53727U 22107AD  25272.19609215  .00000246  00000+0  33549-4 0  9996
2 53727  53.2169 259.0865 0001343  92.7840 267.3306 15.08838975170175
