[{"OBJECT_NAME":"STARLINK-4667","OBJECT_ID":"2022-107H","EPOCH":"2025-09-29T04:37:44.558112","MEAN_MOTION":15.08838315,"ECCENTRICITY":0.00014414,"INCLINATION":53.2156,"RA_OF_ASC_NODE":234.1208,"ARG_OF_PERICENTER":104.9847,"MEAN_ANOMALY":255.1305,"EPHEMERIS_TYPE":0,"CLASSIFICATION_TYPE":"U","NORAD_CAT_ID":53707,"ELEMENT_SET_NO":999,"REV_AT_EPOCH":17068,"BSTAR":0.00029384358,"MEAN_MOTION_DOT":4.391e-5,"MEAN_MOTION_DDOT":0},{"OBJECT_NAME":"STARLINK-4694","OBJECT_ID":"2022-107J","EPOCH":"2025-09-29T02:41:07.601856","MEAN_MOTION":15.0885157,"ECCENTRICITY":0.00013062,"INCLINATION":53.2156,"RA_OF_ASC_NODE":234.3388,"ARG_OF_PERICENTER":89.3317,"MEAN_ANOMALY":270.7825,"EPHEMERIS_TYPE":0,"CLASSIFICATION_TYPE":"U","NORAD_CAT_ID":53708,"ELEMENT_SET_NO":999,"REV_AT_EPOCH":17067,"BSTAR":0.00022493053,"MEAN_MOTION_DOT":3.295e-5,"MEAN_MOTION_DDOT":0},{"OBJECT_NAME":"STARLINK-4685","OBJECT_ID":"2022-107K","EPOCH":"2025-09-29T05:33:19.255968","MEAN_MOTION":15.08839801,"ECCENTRICITY":0.00014104,"INCLINATION":53.2161,"RA_OF_ASC_NODE":253.6254,"ARG_OF_PERICENTER":78.915,"MEAN_ANOMALY":281.2001,"EPHEMERIS_TYPE":0,"CLASSIFICATION_TYPE":"U","NORAD_CAT_ID":53709,"ELEMENT_SET_NO":999,"REV_AT_EPOCH":17010,"BSTAR":4.517788e-5,"MEAN_MOTION_DOT":4.31e-6,"MEAN_MOTION_DDOT":0},{"OBJECT_NAME":"STARLINK-4627","OBJECT_ID":"2022-107M","EPOCH":"2025-09-29T02:38:28.254336","MEAN_MOTION":15.08835585,"ECCENTRICITY":0.00014736,"INCLINATION":53.2169,"RA_OF_ASC_NODE":254.281,"ARG_OF_PERICENTER":101.5886,"MEAN_ANOMALY":258.5272,"EPHEMERIS_TYPE":0,"CLASSIFICATION_TYPE":"U","NORAD_CAT_ID":53711,"ELEMENT_SET_NO":999,"REV_AT_EPOCH":17008,"BSTAR":4.6639344e-5,"MEAN_MOTION_DOT":4.54e-6,"MEAN_MOTION_DDOT":0},{"OBJECT_NAME":"STARLINK-4683","OBJECT_ID":"2022-107N","EPOCH":"2025-09-29T05:12:06.039648","MEAN_MOTION":15.08840348,"ECCENTRICITY":0.0001335,"INCLINATION":53.2161,"RA_OF_ASC_NODE":253.5464,"ARG_OF_PERICENTER":85.3771,"MEAN_ANOMALY":274.7374,"EPHEMERIS_TYPE":0,"CLASSIFICATION_TYPE":"U","NORAD_CAT_ID":53712,"ELEMENT_SET_NO":999,"REV_AT_EPOCH":17012,"BSTAR":8.7507141e-5,"MEAN_MOTION_DOT":1.105e-5,"MEAN_MOTION_DDOT":0},{"OBJECT_NAME":"STARLINK-4686","OBJECT_ID":"2022-107R","EPOCH":"2025-09-29T02:29:50.680320","MEAN_MOTION":15.08847567,"ECCENTRICITY":0.00015943,"INCLINATION":53.2155,"RA_OF_ASC_NODE":259.2232,"ARG_OF_PERICENTER":89.2896,"MEAN_ANOMALY":270.8278,"EPHEMERIS_TYPE":0,"CLASSIFICATION_TYPE":"U","NORAD_CAT_ID":53715,"ELEMENT_SET_NO":999,"REV_AT_EPOCH":17002,"BSTAR":0.00025565576,"MEAN_MOTION_DOT":3.784e-5,"MEAN_MOTION_DDOT":0},{"OBJECT_NAME":"STARLINK-4699","OBJECT_ID":"2022-107S","EPOCH":"2025-09-29T05:35:18.466368","MEAN_MOTION":15.08841502,"ECCENTRICITY":0.00017558,"INCLINATION":53.2168,"RA_OF_ASC_NODE":258.6032,"ARG_OF_PERICENTER":65.4269,"MEAN_ANOMALY":294.6906,"EPHEMERIS_TYPE":0,"CLASSIFICATION_TYPE":"U","NORAD_CAT_ID":53716,"ELEMENT_SET_NO":999,"REV_AT_EPOCH":17003,"BSTAR":7.4436731e-5,"MEAN_MOTION_DOT":8.97e-6,"MEAN_MOTION_DDOT":0},{"OBJECT_NAME":"STARLINK-4695","OBJECT_ID":"2022-107U","EPOCH":"2025-09-29T05:20:53.691360","MEAN_MOTION":15.08841315,"ECCENTRICITY":0.0001381,"INCLINATION":53.2164,"RA_OF_ASC_NODE":259.2375,"ARG_OF_PERICENTER":88.6921,"MEAN_ANOMALY":271.4229,"EPHEMERIS_TYPE":0,"CLASSIFICATION_TYPE":"U","NORAD_CAT_ID":53718,"ELEMENT_SET_NO":999,"REV_AT_EPOCH":17002,"BSTAR":8.2867055e-5,"MEAN_MOTION_DOT":1.031e-5,"MEAN_MOTION_DDOT":0},{"OBJECT_NAME":"STARLINK-4644","OBJECT_ID":"2022-107V","EPOCH":"2025-09-28T21:26:26.736000","MEAN_MOTION":15.0884145,"ECCENTRICITY":0.00014644,"INCLINATION":53.2169,"RA_OF_ASC_NODE":230.0755,"ARG_OF_PERICENTER":93.2284,"MEAN_ANOMALY":266.8876,"EPHEMERIS_TYPE":0,"CLASSIFICATION_TYPE":"U","NORAD_CAT_ID":53719,"ELEMENT_SET_NO":999,"REV_AT_EPOCH":17041,"BSTAR":9.914724e-5,"MEAN_MOTION_DOT":1.29e-5,"MEAN_MOTION_DDOT":0},{"OBJECT_NAME":"STARLINK-4642","OBJECT_ID":"2022-107W","EPOCH":"2025-09-29T05:45:56.748960","MEAN_MOTION":15.08852305,"ECCENTRICITY":0.00015254,"INCLINATION":53.2151,"RA_OF_ASC_NODE":258.652,"ARG_OF_PERICENTER":84.0233,"MEAN_ANOMALY":276.0933,"EPHEMERIS_TYPE":0,"CLASSIFICATION_TYPE":"U","NORAD_CAT_ID":53720,"ELEMENT_SET_NO":999,"REV_AT_EPOCH":17004,"BSTAR":0.00057895491,"MEAN_MOTION_DOT":8.941e-5,"MEAN_MOTION_DDOT":0},{"OBJECT_NAME":"STARLINK-4707","OBJECT_ID":"2022-107X","EPOCH":"2025-09-29T05:56:32.044704","MEAN_MOTION":15.08853262,"ECCENTRICITY":0.00014832,"INCLINATION":53.2172,"RA_OF_ASC_NODE":258.7015,"ARG_OF_PERICENTER":81.0055,"MEAN_ANOMALY":279.1105,"EPHEMERIS_TYPE":0,"CLASSIFICATION_TYPE":"U","NORAD_CAT_ID":53721,"ELEMENT_SET_NO":999,"REV_AT_EPOCH":17004,"BSTAR":2.9294914e-5,"MEAN_MOTION_DOT":1.78e-6,"MEAN_MOTION_DDOT":0},{"OBJECT_NAME":"STARLINK-4700","OBJECT_ID":"2022-107Y","EPOCH":"2025-09-29T04:31:45.461568","MEAN_MOTION":15.08836613,"ECCENTRICITY":0.00013819,"INCLINATION":53.2167,"RA_OF_ASC_NODE":259.0354,"ARG_OF_PERICENTER":96.9177,"MEAN_ANOMALY":263.1972,"EPHEMERIS_TYPE":0,"CLASSIFICATION_TYPE":"U","NORAD_CAT_ID":53722,"ELEMENT_SET_NO":999,"REV_AT_EPOCH":17002,"BSTAR":2.4158596e-5,"MEAN_MOTION_DOT":9.7e-7,"MEAN_MOTION_DDOT":0},{"OBJECT_NAME":"STARLINK-4705","OBJECT_ID":"2022-107Z","EPOCH":"2025-09-29T05:30:00.089280","MEAN_MOTION":15.08842698,"ECCENTRICITY":0.00015757,"INCLINATION":53.2169,"RA_OF_ASC_NODE":258.5909,"ARG_OF_PERICENTER":76.3008,"MEAN_ANOMALY":283.816,"EPHEMERIS_TYPE":0,"CLASSIFICATION_TYPE":"U","NORAD_CAT_ID":53723,"ELEMENT_SET_NO":999,"REV_AT_EPOCH":17018,"BSTAR":6.7334598e-5,"MEAN_MOTION_DOT":7.84e-6,"MEAN_MOTION_DDOT":0},{"OBJECT_NAME":"STARLINK-4663","OBJECT_ID":"2022-107AA","EPOCH":"2025-09-29T05:51:13.119840","MEAN_MOTION":15.08842536,"ECCENTRICITY":0.00015406,"INCLINATION":53.217,"RA_OF_ASC_NODE":258.6744,"ARG_OF_PERICENTER":100.1391,"MEAN_ANOMALY":259.9775,"EPHEMERIS_TYPE":0,"CLASSIFICATION_TYPE":"U","NORAD_CAT_ID":53724,"ELEMENT_SET_NO":999,"REV_AT_EPOCH":17004,"BSTAR":4.8738752e-5,"MEAN_MOTION_DOT":4.88e-6,"MEAN_MOTION_DDOT":0},{"OBJECT_NAME":"STARLINK-4697","OBJECT_ID":"2022-107AC","EPOCH":"2025-09-29T04:26:28.224096","MEAN_MOTION":15.08865609,"ECCENTRICITY":0.00013726,"INCLINATION":53.2155,"RA_OF_ASC_NODE":259.0165,"ARG_OF_PERICENTER":99.3995,"MEAN_ANOMALY":260.7152,"EPHEMERIS_TYPE":0,"CLASSIFICATION_TYPE":"U","NORAD_CAT_ID":53726,"ELEMENT_SET_NO":999,"REV_AT_EPOCH":17003,"BSTAR":0.00081521962,"MEAN_MOTION_DOT":0.00012719,"MEAN_MOTION_DDOT":0},{"OBJECT_NAME":"STARLINK-4701","OBJECT_ID":"2022-107AD","EPOCH":"2025-09-29T04:42:22.361760","MEAN_MOTION":15.08838975,"ECCENTRICITY":0.00013432,"INCLINATION":53.2169,"RA_OF_ASC_NODE":259.0865,"ARG_OF_PERICENTER":92.784,"MEAN_ANOMALY":267.3306,"EPHEMERIS_TYPE":0,"CLASSIFICATION_TYPE":"U","NORAD_CAT_ID":53727,"ELEMENT_SET_NO":999,"REV_AT_EPOCH":17017,"BSTAR":3.354935e-5,"MEAN_MOTION_DOT":2.46e-6,"MEAN_MOTION_DDOT":0}]
